[{"OBJECT_NAME":"NEXSAT-1","OBJECT_ID":"2024-024E","EPOCH":"2026-03-09T22:47:24.778176","MEAN_MOTION":15.32166372,"ECCENTRICITY":0.00099795,"INCLINATION":97.3124,"RA_OF_ASC_NODE":144.1918,"ARG_OF_PERICENTER":108.5709,"MEAN_ANOMALY":251.6617,"EPHEMERIS_TYPE":0,"CLASSIFICATION_TYPE":"U","NORAD_CAT_ID":58921,"ELEMENT_SET_NO":999,"REV_AT_EPOCH":11669,"BSTAR":0.00031433612,"MEAN_MOTION_DOT":9.702e-5,"MEAN_MOTION_DDOT":0},{"OBJECT_NAME":"STARLINK-32585","OBJECT_ID":"2024-209Q","EPOCH":"2026-03-09T11:48:19.613952","MEAN_MOTION":15.30187335,"ECCENTRICITY":9.891e-5,"INCLINATION":53.1573,"RA_OF_ASC_NODE":143.5338,"ARG_OF_PERICENTER":86.4281,"MEAN_ANOMALY":273.6833,"EPHEMERIS_TYPE":0,"CLASSIFICATION_TYPE":"U","NORAD_CAT_ID":61953,"ELEMENT_SET_NO":999,"REV_AT_EPOCH":7486,"BSTAR":0.00083941913,"MEAN_MOTION_DOT":0.00024575,"MEAN_MOTION_DDOT":0}]
